{
    "links": {
        "self": "http://www.neowsapp.com/rest/v1/neo/3610027?api_key=iIulBulltgU6a56xZRHN4H3l9WmuAYTsLGpBGhQ2"
    },
    "id": "3610027",
    "neo_reference_id": "3610027",
    "name": "(2012 TD53)",
    "designation": "2012 TD53",
    "nasa_jpl_url": "http://ssd.jpl.nasa.gov/sbdb.cgi?sstr=3610027",
    "absolute_magnitude_h": 22.1,
    "estimated_diameter": {
        "kilometers": {
            "estimated_diameter_min": 0.1010543415,
            "estimated_diameter_max": 0.2259643771
        },
        "meters": {
            "estimated_diameter_min": 101.054341542,
            "estimated_diameter_max": 225.9643771094
        },
        "miles": {
            "estimated_diameter_min": 0.0627922373,
            "estimated_diameter_max": 0.140407711
        },
        "feet": {
            "estimated_diameter_min": 331.5431259047,
            "estimated_diameter_max": 741.3529669956
        }
    },
    "is_potentially_hazardous_asteroid": false,
    "close_approach_data": [
        {
            "close_approach_date": "2012-10-10",
            "close_approach_date_full": "2012-Oct-10 07:59",
            "epoch_date_close_approach": 1349855940000,
            "relative_velocity": {
                "kilometers_per_second": "5.9683506828",
                "kilometers_per_hour": "21486.0624581733",
                "miles_per_hour": "13350.6036424133"
            },
            "miss_distance": {
                "astronomical": "0.2267218661",
                "lunar": "88.1948059129",
                "kilometers": "33917108.250985207",
                "miles": "21075113.8011495766"
            },
            "orbiting_body": "Earth"
        }
    ],
    "orbital_data": {
        "orbit_id": "14",
        "orbit_determination_date": "2017-04-06 08:48:43",
        "first_observation_date": "2012-10-08",
        "last_observation_date": "2012-11-23",
        "data_arc_in_days": 46,
        "observations_used": 39,
        "orbit_uncertainty": "6",
        "minimum_orbit_intersection": ".225955",
        "jupiter_tisserand_invariant": "3.278",
        "epoch_osculation": "2459000.5",
        "eccentricity": ".506425062891575",
        "semi_major_axis": "2.472861300378276",
        "inclination": "9.153022898086167",
        "ascending_node_longitude": "29.15683509849499",
        "orbital_period": "1420.358792041052",
        "perihelion_distance": "1.220542360812066",
        "perihelion_argument": "345.8090760432761",
        "aphelion_distance": "3.725180239944486",
        "perihelion_time": "2459041.218680417973",
        "mean_anomaly": "349.6795619299784",
        "mean_motion": ".2534570856443117",
        "equinox": "J2000",
        "orbit_class": {
            "orbit_class_type": "AMO",
            "orbit_class_description": "Near-Earth asteroid orbits similar to that of 1221 Amor",
            "orbit_class_range": "1.017 AU < q (perihelion) < 1.3 AU"
        }
    },
    "is_sentry_object": false
}